{
  "type": "FeatureCollection",
  "features": [
    {
      "type": "Feature",
      "properties": {
        "norad_id": 32275,
        "name": "COSMOS 2433 (720)",
        "group": "glo-ops",
        "lat": -54.05012292911189,
        "lon": -179.5923816314983,
        "alt_km": 19122.941703556848,
        "timestamp": "2025-12-22T18:58:53.695457+00:00",
        "meta_object_name": "COSMOS 2433 (720)",
        "meta_object_id": "2007-052A",
        "meta_epoch": "2025-12-22T00:07:36.568704",
        "meta_mean_motion": 2.13104226,
        "meta_eccentricity": 0.00051704,
        "meta_inclination": 65.6781,
        "meta_ra_of_asc_node": 321.8942,
        "meta_arg_of_pericenter": 255.846,
        "meta_mean_anomaly": 104.0915,
        "meta_ephemeris_type": 0,
        "meta_classification_type": "U",
        "meta_norad_cat_id": 32275,
        "meta_element_set_no": 999,
        "meta_rev_at_epoch": 14128,
        "meta_bstar": 0,
        "meta_mean_motion_dot": -4.2e-07,
        "meta_mean_motion_ddot": 0,
        "tle_line1": "1 32275U 07052A   25356.00528436 -.00000042  00000+0  00000+0 0  9997",
        "tle_line2": "2 32275  65.6781 321.8942 0005170 255.8460 104.0915  2.13104226141283"
      },
      "geometry": {
        "type": "Point",
        "coordinates": [
          -179.5923816314983,
          -54.05012292911189
        ]
      }
    },
    {
      "type": "Feature",
      "properties": {
        "norad_id": 32276,
        "name": "COSMOS 2432 (719)",
        "group": "glo-ops",
        "lat": -6.407160266853028,
        "lon": 144.88285932055584,
        "alt_km": 19148.72730983237,
        "timestamp": "2025-12-22T18:58:53.695481+00:00",
        "meta_object_name": "COSMOS 2432 (719)",
        "meta_object_id": "2007-052B",
        "meta_epoch": "2025-12-22T03:59:43.764000",
        "meta_mean_motion": 2.13103428,
        "meta_eccentricity": 0.00113428,
        "meta_inclination": 65.6941,
        "meta_ra_of_asc_node": 322.0132,
        "meta_arg_of_pericenter": 314.3945,
        "meta_mean_anomaly": 113.6439,
        "meta_ephemeris_type": 0,
        "meta_classification_type": "U",
        "meta_norad_cat_id": 32276,
        "meta_element_set_no": 999,
        "meta_rev_at_epoch": 14131,
        "meta_bstar": 0,
        "meta_mean_motion_dot": -4.2e-07,
        "meta_mean_motion_ddot": 0,
        "tle_line1": "1 32276U 07052B   25356.16647875 -.00000042  00000+0  00000+0 0  9994",
        "tle_line2": "2 32276  65.6941 322.0132 0011342 314.3945 113.6439  2.13103428141317"
      },
      "geometry": {
        "type": "Point",
        "coordinates": [
          144.88285932055584,
          -6.407160266853028
        ]
      }
    },
    {
      "type": "Feature",
      "properties": {
        "norad_id": 32393,
        "name": "COSMOS 2434 (721)",
        "group": "glo-ops",
        "lat": 41.004748507318126,
        "lon": -6.880509631533943,
        "alt_km": 19119.217868303178,
        "timestamp": "2025-12-22T18:58:53.695496+00:00",
        "meta_object_name": "COSMOS 2434 (721)",
        "meta_object_id": "2007-065A",
        "meta_epoch": "2025-12-21T09:39:23.764896",
        "meta_mean_motion": 2.13101489,
        "meta_eccentricity": 0.00048181,
        "meta_inclination": 64.3157,
        "meta_ra_of_asc_node": 197.9109,
        "meta_arg_of_pericenter": 72.3225,
        "meta_mean_anomaly": 75.6648,
        "meta_ephemeris_type": 0,
        "meta_classification_type": "U",
        "meta_norad_cat_id": 32393,
        "meta_element_set_no": 999,
        "meta_rev_at_epoch": 13998,
        "meta_bstar": 0,
        "meta_mean_motion_dot": 9.7e-07,
        "meta_mean_motion_ddot": 0,
        "tle_line1": "1 32393U 07065A   25355.40235839  .00000097  00000+0  00000+0 0  9996",
        "tle_line2": "2 32393  64.3157 197.9109 0004818  72.3225  75.6648  2.13101489139981"
      },
      "geometry": {
        "type": "Point",
        "coordinates": [
          -6.880509631533943,
          41.004748507318126
        ]
      }
    },
    {
      "type": "Feature",
      "properties": {
        "norad_id": 32395,
        "name": "COSMOS 2436 (723)",
        "group": "glo-ops",
        "lat": -64.01311678720408,
        "lon": 98.85165615888361,
        "alt_km": 19147.70991277597,
        "timestamp": "2025-12-22T18:58:53.695509+00:00",
        "meta_object_name": "COSMOS 2436 (723)",
        "meta_object_id": "2007-065C",
        "meta_epoch": "2025-12-22T03:44:50.577216",
        "meta_mean_motion": 2.13100244,
        "meta_eccentricity": 0.00178113,
        "meta_inclination": 64.3245,
        "meta_ra_of_asc_node": 197.9558,
        "meta_arg_of_pericenter": 10.2272,
        "meta_mean_anomaly": 129.0724,
        "meta_ephemeris_type": 0,
        "meta_classification_type": "U",
        "meta_norad_cat_id": 32395,
        "meta_element_set_no": 999,
        "meta_rev_at_epoch": 13995,
        "meta_bstar": 0,
        "meta_mean_motion_dot": 9.5e-07,
        "meta_mean_motion_ddot": 0,
        "tle_line1": "1 32395U 07065C   25356.15614094  .00000095  00000+0  00000+0 0  9993",
        "tle_line2": "2 32395  64.3245 197.9558 0017811  10.2272 129.0724  2.13100244139953"
      },
      "geometry": {
        "type": "Point",
        "coordinates": [
          98.85165615888361,
          -64.01311678720408
        ]
      }
    },
    {
      "type": "Feature",
      "properties": {
        "norad_id": 36111,
        "name": "COSMOS 2456 (730)",
        "group": "glo-ops",
        "lat": -58.13919520898582,
        "lon": 28.176728820577328,
        "alt_km": 19127.688651462417,
        "timestamp": "2025-12-22T18:58:53.695522+00:00",
        "meta_object_name": "COSMOS 2456 (730)",
        "meta_object_id": "2009-070A",
        "meta_epoch": "2025-12-20T03:13:18.516576",
        "meta_mean_motion": 2.13103685,
        "meta_eccentricity": 0.00033011,
        "meta_inclination": 64.904,
        "meta_ra_of_asc_node": 77.0852,
        "meta_arg_of_pericenter": 296.9564,
        "meta_mean_anomaly": 115.2996,
        "meta_ephemeris_type": 0,
        "meta_classification_type": "U",
        "meta_norad_cat_id": 36111,
        "meta_element_set_no": 999,
        "meta_rev_at_epoch": 12461,
        "meta_bstar": 0,
        "meta_mean_motion_dot": -2.2e-07,
        "meta_mean_motion_ddot": 0,
        "tle_line1": "1 36111U 09070A   25354.13424209 -.00000022  00000+0  00000+0 0  9995",
        "tle_line2": "2 36111  64.9040  77.0852 0003301 296.9564 115.2996  2.13103685124610"
      },
      "geometry": {
        "type": "Point",
        "coordinates": [
          28.176728820577328,
          -58.13919520898582
        ]
      }
    },
    {
      "type": "Feature",
      "properties": {
        "norad_id": 36112,
        "name": "COSMOS 2457 (733)",
        "group": "glo-ops",
        "lat": 51.16692769183422,
        "lon": 112.41934218620032,
        "alt_km": 19126.845654709978,
        "timestamp": "2025-12-22T18:58:53.695534+00:00",
        "meta_object_name": "COSMOS 2457 (733)",
        "meta_object_id": "2009-070B",
        "meta_epoch": "2025-12-22T07:58:45.939360",
        "meta_mean_motion": 2.13101135,
        "meta_eccentricity": 0.00045264,
        "meta_inclination": 64.8905,
        "meta_ra_of_asc_node": 76.8574,
        "meta_arg_of_pericenter": 162.7166,
        "meta_mean_anomaly": 265.0122,
        "meta_ephemeris_type": 0,
        "meta_classification_type": "U",
        "meta_norad_cat_id": 36112,
        "meta_element_set_no": 999,
        "meta_rev_at_epoch": 12466,
        "meta_bstar": 0,
        "meta_mean_motion_dot": -5e-08,
        "meta_mean_motion_ddot": 0,
        "tle_line1": "1 36112U 09070B   25356.33247615 -.00000005  00000+0  00000+0 0  9995",
        "tle_line2": "2 36112  64.8905  76.8574 0004526 162.7166 265.0122  2.13101135124664"
      },
      "geometry": {
        "type": "Point",
        "coordinates": [
          112.41934218620032,
          51.16692769183422
        ]
      }
    },
    {
      "type": "Feature",
      "properties": {
        "norad_id": 36402,
        "name": "COSMOS 2460 (732)",
        "group": "glo-ops",
        "lat": 51.34020803496002,
        "lon": -4.901149460064464,
        "alt_km": 19128.456752565282,
        "timestamp": "2025-12-22T18:58:53.695547+00:00",
        "meta_object_name": "COSMOS 2460 (732)",
        "meta_object_id": "2010-007C",
        "meta_epoch": "2025-12-21T10:11:10.908384",
        "meta_mean_motion": 2.13106318,
        "meta_eccentricity": 0.0002509,
        "meta_inclination": 65.525,
        "meta_ra_of_asc_node": 320.48,
        "meta_arg_of_pericenter": 281.7872,
        "meta_mean_anomaly": 168.9418,
        "meta_ephemeris_type": 0,
        "meta_classification_type": "U",
        "meta_norad_cat_id": 36402,
        "meta_element_set_no": 999,
        "meta_rev_at_epoch": 12294,
        "meta_bstar": 0,
        "meta_mean_motion_dot": -4.6e-07,
        "meta_mean_motion_ddot": 0,
        "tle_line1": "1 36402U 10007C   25355.42443181 -.00000046  00000+0  00000+0 0  9999",
        "tle_line2": "2 36402  65.5250 320.4800 0002509 281.7872 168.9418  2.13106318122948"
      },
      "geometry": {
        "type": "Point",
        "coordinates": [
          -4.901149460064464,
          51.34020803496002
        ]
      }
    }
  ]
}